ONEWEB-0171             
1 48070U 21025AE  24129.92929697  .00000268  00000+0  69768-3 0  9994
2 48070  87.8898 113.3718 0002150  89.6284 270.5092 13.13471719152637
ONEWEB-0172             
1 48071U 21025AF  24130.21337272 -.00000302  00000+0 -86102-3 0  9993
2 48071  87.8899 113.2817 0002223  89.2152 270.9232 13.13470526153567
ONEWEB-0174             
1 48072U 21025AG  24129.89119583 -.00000089  00000+0 -27981-3 0  9991
2 48072  87.8899 113.3602 0001979  82.0979 278.0374 13.13467534152847
ONEWEB-0175             
1 48073U 21025AH  24129.91977335 -.00000024  00000+0 -99327-4 0  9995
2 48073  87.8892 113.3453 0002144  98.0591 262.0781 13.13471162152507
ONEWEB-0177             
1 48074U 21025AJ  24129.93247352  .00000294  00000+0  77071-3 0  9995
2 48074  87.8892 113.3500 0002403  81.1459 278.9942 13.13471085152694
ONEWEB-0178             
1 48075U 21025AK  24129.95008359  .00000346  00000+0  91141-3 0  9992
2 48075  87.8901 113.3618 0002203  84.4187 275.7193 13.13470718152749
ONEWEB-0108             
1 48076U 21025AL  24130.44349054 -.00000312  00000+0 -89013-3 0  9999
2 48076  87.8893 113.2459 0001751  83.9168 276.2161 13.13470741152749
ONEWEB-0169             
1 48077U 21025AM  24129.94199684  .00000395  00000+0  10468-2 0  9991
2 48077  87.8896 113.3548 0001748  83.0211 277.1116 13.13470810151329
